NORAD_CAT_ID,OBJECT_NAME,OBJECT_TYPE,EPOCH,MEAN_MOTION,ECCENTRICITY,INCLINATION,RA_OF_ASC_NODE,ARG_OF_PERICENTER,MEAN_ANOMALY,BSTAR,MEAN_MOTION_DOT,MEAN_MOTION_DDOT,TLE_LINE0,TLE_LINE1,TLE_LINE2,SEMIMAJOR_AXIS,PERIOD,APOGEE,PERIGEE,DECAYED
53999.0,STARLINK-5079,PAYLOAD,2023-02-16 13:12:48,15.08860616,0.0001368,53.2144,189.0717,82.4652,277.6496,0.0013406,0.00021124,0.0,0 STARLINK-5079,1 53999U 22125AM  23047.55055791  .00021124  00000-0  13406-2 0  9996,2 53999  53.2144 189.0717 0001368  82.4652 277.6496 15.08860616 20817,6917.817,95.436,540.629,538.736,0.0
53999.0,STARLINK-5079,PAYLOAD,2023-02-16 16:23:34,15.08878693,0.0001341,53.2146,188.4777,82.6503,277.4642,0.0025506,0.00040582,0.0,0 STARLINK-5079,1 53999U 22125AM  23047.68303532  .00040582  00000-0  25506-2 0  9992,2 53999  53.2146 188.4777 0001341  82.6503 277.4642 15.08878693 20901,6917.762,95.435,540.555,538.699,0.0
53999.0,STARLINK-5079,PAYLOAD,2023-02-16 21:09:43,15.08895887,0.000133,53.2133,187.5852,82.4423,277.6721,0.0029998,0.00047852,0.0,0 STARLINK-5079,1 53999U 22125AM  23047.88174951  .00047852  00000-0  29998-2 0  9991,2 53999  53.2133 187.5852 0001330  82.4423 277.6721 15.08895887 20867,6917.71,95.434,540.495,538.655,0.0
53999.0,STARLINK-5079,PAYLOAD,2023-02-17 08:17:25,15.08820467,9.85e-05,53.2155,185.5047,95.8526,264.2578,-0.00021265,-3.669e-05,0.0,0 STARLINK-5079,1 53999U 22125AM  23048.34543883 -.00003669  00000-0 -21265-3 0  9997,2 53999  53.2155 185.5047 0000985  95.8526 264.2578 15.08820467 21003,6917.94,95.439,540.487,539.124,0.0
53999.0,STARLINK-5079,PAYLOAD,2023-02-17 13:03:35,15.08827884,0.0001198,53.2142,184.611,113.6277,246.4841,0.00087643,0.00013683,0.0,0 STARLINK-5079,1 53999U 22125AM  23048.54416119  .00013683  00000-0  87643-3 0  9997,2 53999  53.2142 184.6110 0001198 113.6277 246.4841 15.08827884 20968,6917.917,95.438,540.611,538.954,0.0
53999.0,STARLINK-5079,PAYLOAD,2023-02-17 16:14:22,15.08827957,0.0001201,53.2137,184.0166,110.9091,249.203,0.0017391,0.00027489,0.0,0 STARLINK-5079,1 53999U 22125AM  23048.67664413  .00027489  00000-0  17391-2 0  9994,2 53999  53.2137 184.0166 0001201 110.9091 249.2030 15.08827957 21059,6917.917,95.438,540.613,538.951,0.0
53999.0,STARLINK-5079,PAYLOAD,2023-02-17 19:25:08,15.08835709,8.66e-05,53.2145,183.422,106.3972,253.7115,0.0019911,0.00031539,0.0,0 STARLINK-5079,1 53999U 22125AM  23048.80912497  .00031539  00000-0  19911-2 0  9998,2 53999  53.2145 183.4220 0000866 106.3972 253.7115 15.08835709 21008,6917.894,95.438,540.358,539.159,0.0
53999.0,STARLINK-5079,PAYLOAD,2023-02-18 14:29:46,15.08831992,0.0001386,53.2156,179.8524,81.2174,278.8975,0.00106,0.00016618,0.0,0 STARLINK-5079,1 53999U 22125AM  23049.60401506  .00016618  00000-0  10600-2 0  9998,2 53999  53.2156 179.8524 0001386  81.2174 278.8975 15.08831992 21191,6917.905,95.438,540.729,538.811,0.0
53999.0,STARLINK-5079,PAYLOAD,2023-02-19 14:20:33,15.08848474,9.62e-05,53.214,175.3941,68.244,291.8655,0.00086997,0.00013588,0.0,0 STARLINK-5079,1 53999U 22125AM  23050.59761125  .00013588  00000-0  86997-3 0  9990,2 53999  53.2140 175.3941 0000962  68.2440 291.8655 15.08848474 21270,6917.854,95.437,540.385,539.054,0.0
53999.0,STARLINK-5079,PAYLOAD,2023-02-19 17:31:19,15.08858682,9.7e-05,53.2143,174.7988,76.5543,283.5557,0.0012797,0.00020147,0.0,0 STARLINK-5079,1 53999U 22125AM  23050.73008968  .00020147  00000-0  12797-2 0  9990,2 53999  53.2143 174.7988 0000970  76.5543 283.5557 15.08858682 21363,6917.823,95.436,540.359,539.017,0.0
53999.0,STARLINK-5079,PAYLOAD,2023-02-20 01:28:15,15.08849874,7.12e-05,53.2153,173.3097,89.9194,270.188,0.00061675,9.544e-05,0.0,0 STARLINK-5079,1 53999U 22125AM  23051.06128883  .00009544  00000-0  61675-3 0  9994,2 53999  53.2153 173.3097 0000712  89.9194 270.1880 15.08849874 21414,6917.85,95.437,540.208,539.223,0.0
53999.0,STARLINK-5079,PAYLOAD,2023-02-20 14:11:20,15.08849022,0.0001015,53.215,170.9325,80.1129,279.9977,0.0004245,6.476e-05,0.0,0 STARLINK-5079,1 53999U 22125AM  23051.59120911  .00006476  00000-0  42450-3 0  9997,2 53999  53.2150 170.9325 0001015  80.1129 279.9977 15.08849022 21426,6917.853,95.437,540.42,539.016,0.0
53999.0,STARLINK-5079,PAYLOAD,2023-02-20 17:22:06,15.08855867,0.0001173,53.215,170.336,89.1263,270.9863,0.00065243,0.00010115,0.0,0 STARLINK-5079,1 53999U 22125AM  23051.72368747  .00010115  00000-0  65243-3 0  9993,2 53999  53.2150 170.3360 0001173  89.1263 270.9863 15.08855867 21511,6917.832,95.437,540.508,538.885,0.0
53999.0,STARLINK-5079,PAYLOAD,2023-02-21 01:19:02,15.08844211,0.0001086,53.2155,168.8493,98.1068,262.0047,0.00027323,4.064e-05,0.0,0 STARLINK-5079,1 53999U 22125AM  23052.05488839  .00004064  00000-0  27323-3 0  9998,2 53999  53.2155 168.8493 0001086  98.1068 262.0047 15.08844211 21563,6917.868,95.437,540.484,538.981,0.0
53999.0,STARLINK-5079,PAYLOAD,2023-02-21 14:02:07,15.08859994,0.0001243,53.2152,166.4729,92.9497,267.1637,0.00086224,0.00013469,0.0,0 STARLINK-5079,1 53999U 22125AM  23052.58480669  .00013469  00000-0  86224-3 0  9993,2 53999  53.2152 166.4729 0001243  92.9497 267.1637 15.08859994 21575,6917.819,95.436,540.544,538.824,0.0
53999.0,STARLINK-5079,PAYLOAD,2023-02-21 18:48:16,15.08868335,0.0001396,53.2152,165.5799,96.3587,263.7564,0.0011833,0.00018609,0.0,0 STARLINK-5079,1 53999U 22125AM  23052.78352363  .00018609  00000-0  11833-2 0  9998,2 53999  53.2152 165.5799 0001396  96.3587 263.7564 15.08868335 21670,6917.794,95.436,540.625,538.693,0.0
53999.0,STARLINK-5079,PAYLOAD,2023-02-22 10:42:07,15.08848201,8.51e-05,53.215,162.6052,103.344,256.7647,0.00071879,0.00011173,0.0,0 STARLINK-5079,1 53999U 22125AM  23053.44592543  .00011173  00000-0  71879-3 0  9994,2 53999  53.2150 162.6052 0000851 103.3440 256.7647 15.08848201 21775,6917.855,95.437,540.309,539.132,0.0
53999.0,STARLINK-5079,PAYLOAD,2023-02-22 12:17:31,15.08848888,0.0001104,53.215,162.3086,101.8737,258.2379,0.0011269,0.00017696,0.0,0 STARLINK-5079,1 53999U 22125AM  23053.51216615  .00017696  00000-0  11269-2 0  9997,2 53999  53.2150 162.3086 0001104 101.8737 258.2379 15.08848888 21717,6917.853,95.437,540.482,538.954,0.0
53999.0,STARLINK-5079,PAYLOAD,2023-02-22 18:39:03,15.08862233,0.0001125,53.2148,161.1201,107.2388,252.8727,0.0015494,0.00024472,0.0,0 STARLINK-5079,1 53999U 22125AM  23053.77712277  .00024472  00000-0  15494-2 0  9994,2 53999  53.2148 161.1201 0001125 107.2388 252.8727 15.08862233 21756,6917.812,95.436,540.456,538.899,0.0
53999.0,STARLINK-5079,PAYLOAD,2023-02-23 12:08:18,15.08843648,0.0001334,53.215,157.8494,99.9713,260.143,0.001653,0.0002612,0.0,0 STARLINK-5079,1 53999U 22125AM  23054.50577220  .00026120  00000-0  16530-2 0  9997,2 53999  53.2150 157.8494 0001334  99.9713 260.1430 15.08843648 21860,6917.869,95.437,540.657,538.811,0.0
53999.0,STARLINK-5079,PAYLOAD,2023-02-23 18:29:51,15.08857199,0.0001307,53.2151,156.6595,91.4675,268.6466,0.001966,0.00031154,0.0,0 STARLINK-5079,1 53999U 22125AM  23054.77073101  .00031154  00000-0  19660-2 0  9995,2 53999  53.2151 156.6595 0001307  91.4675 268.6466 15.08857199 21974,6917.828,95.436,540.597,538.789,0.0
53999.0,STARLINK-5079,PAYLOAD,2023-02-23 23:16:00,15.08832718,0.0001109,53.2151,155.7675,123.8636,236.2461,0.00033633,5.068e-05,0.0,0 STARLINK-5079,1 53999U 22125AM  23054.96945209  .00005068  00000-0  33633-3 0  9995,2 53999  53.2151 155.7675 0001109 123.8636 236.2461 15.08832718 22001,6917.903,95.438,540.535,539.0,0.0
53999.0,STARLINK-5079,PAYLOAD,2023-02-24 10:23:42,15.08854597,0.0001276,53.2145,153.686,101.0363,259.0772,0.0019045,0.00030164,0.0,0 STARLINK-5079,1 53999U 22125AM  23055.43313406  .00030164  00000-0  19045-2 0  9991,2 53999  53.2145 153.6860 0001276 101.0363 259.0772 15.08854597 22071,6917.836,95.437,540.583,538.818,0.0
53999.0,STARLINK-5079,PAYLOAD,2023-02-24 11:59:05,15.08854067,0.0001264,53.2146,153.3883,101.691,258.4224,0.0017379,0.0002749,0.0,0 STARLINK-5079,1 53999U 22125AM  23055.49937333  .00027490  00000-0  17379-2 0  9994,2 53999  53.2146 153.3883 0001264 101.6910 258.4224 15.08854067 22016,6917.837,95.437,540.577,538.828,0.0
53999.0,STARLINK-5079,PAYLOAD,2023-02-24 16:45:15,15.08863415,0.0001308,53.2145,152.4961,101.0168,259.0971,0.0018065,0.00028598,0.0,0 STARLINK-5079,1 53999U 22125AM  23055.69809118  .00028598  00000-0  18065-2 0  9998,2 53999  53.2145 152.4961 0001308 101.0168 259.0971 15.08863415 22046,6917.809,95.436,540.579,538.769,0.0
53999.0,STARLINK-5079,PAYLOAD,2023-02-24 23:06:48,15.08842906,0.0001912,53.2149,151.3077,83.7668,276.3542,0.00043703,6.675e-05,0.0,0 STARLINK-5079,1 53999U 22125AM  23055.96305586  .00006675  00000-0  43703-3 0  9998,2 53999  53.2149 151.3077 0001912  83.7668 276.3542 15.08842906 22158,6917.872,95.437,541.059,538.414,0.0
53999.0,STARLINK-5079,PAYLOAD,2023-02-25 11:49:53,15.08824128,0.0001163,53.2146,148.9276,92.2614,267.8511,0.0010727,0.00016818,0.0,0 STARLINK-5079,1 53999U 22125AM  23056.49298130  .00016818  00000-0  10727-2 0  9992,2 53999  53.2146 148.9276 0001163  92.2614 267.8511 15.08824128 22160,6917.929,95.439,540.598,538.989,0.0
53999.0,STARLINK-5079,PAYLOAD,2023-02-25 16:36:03,15.08823043,0.0001362,53.2148,148.0346,75.4856,284.6287,0.00086106,0.00013436,0.0,0 STARLINK-5079,1 53999U 22125AM  23056.69170477  .00013436  00000-0  86106-3 0  9995,2 53999  53.2148 148.0346 0001362  75.4856 284.6287 15.08823043 22266,6917.932,95.439,540.739,538.855,0.0
53999.0,STARLINK-5079,PAYLOAD,2023-02-25 22:57:35,15.08842421,0.0001286,53.2143,146.8463,88.4599,271.654,0.0010161,0.00015921,0.0,0 STARLINK-5079,1 53999U 22125AM  23056.95666319  .00015921  00000-0  10161-2 0  9997,2 53999  53.2143 146.8463 0001286  88.4599 271.6540 15.08842421 22304,6917.873,95.437,540.628,538.848,0.0
53999.0,STARLINK-5079,PAYLOAD,2023-02-26 06:54:31,15.08864562,0.000123,53.2138,145.3593,84.9165,275.1967,0.0017425,0.00027571,0.0,0 STARLINK-5079,1 53999U 22125AM  23057.28786026  .00027571  00000-0  17425-2 0  9996,2 53999  53.2138 145.3593 0001230  84.9165 275.1967 15.08864562 22352,6917.805,95.436,540.521,538.819,0.0
